# FY3D (LEO)
1 43010U 17072A   26160.95892771 -.00000072  00000+0 -12196-4 0  9991
2 43010  99.0124 135.2505 0002641  73.8909 286.2557 14.19737969443962

# FY3E (LEO)
1 49008U 21062A   26160.94360140 -.00000308  00000+0 -12423-3 0  9991
2 49008  98.7497 164.4322 0002779  97.6684 262.4808 14.19902262255552

# FY3F (LEO)
1 57490U 23111A   26160.92768662  .00000036  00000+0  37327-4 0  9998
2 57490  98.6841 231.0714 0001585  98.5420 261.5936 14.19937860147831

# FY3G (LEO)
1 56232U 23055A   26160.12520916  .00022526  00000+0  34170-3 0  9998
2 56232  49.9935  27.5514 0005565 167.7824 192.3280 15.54457419178757

# C2E1 (LEO)
1 44349U 19036L   26160.44561388  .00002438  00000+0  18360-3 0  9994
2 44349  23.9980  84.5814 0001023  90.4732 269.5886 14.96472068383496

# C2E2 (LEO)
1 44351U 19036N   26160.42372581  .00002099  00000+0  15447-3 0  9996
2 44351  23.9972 201.1555 0001042  96.3518 263.7102 14.96469029382429

# C2E3 (LEO)
1 44343U 19036E   26160.51739095  .00003827  00000+0  21017-3 0  9994
2 44343  23.9985 231.3301 0000887 150.2032 209.8522 15.09750740382082

# C2E4 (LEO)
1 44350U 19036M   26160.26801725  .00002232  00000+0  16586-3 0  9998
2 44350  23.9968 147.8868 0001512  99.2720 260.7952 14.96465427382883

# C2E5 (LEO)
1 44358U 19036V   26160.73422875  .00002536  00000+0  19201-3 0  9997
2 44358  23.9998 318.6256 0000686  85.9693 274.0886 14.96486054381236

# C2E6 (LEO)
1 44353U 19036Q   26160.29018550  .00002452  00000+0  18482-3 0  9991
2 44353  23.9992  22.8667 0001192  20.8011 339.2538 14.96476149380635

# G01 (GNSS)
1 62339U 24242A   26160.64723108 -.00000062  00000+0  00000+0 0  9990
2 62339  54.8506 334.4875 0017340   4.0342 200.5573  2.00571369 11103

# G02 (GNSS)
1 28474U 04045A   26158.35392840 -.00000059  00000+0  00000+0 0  9997
2 28474  55.1426 325.2921 0169828 316.1566  61.9153  2.00555496158236

# G03 (GNSS)
1 40294U 14068A   26160.44512867 -.00000064  00000+0  00000+0 0  9999
2 40294  56.9823  31.2530 0066877  70.2914 290.4821  2.00575640 85058

# G04 (GNSS)
1 43873U 18109A   26160.78869767  .00000003  00000+0  00000+0 0  9998
2 43873  55.6773  92.4792 0038199 198.0814 343.6535  2.00561288 54925

# G05 (GNSS)
1 35752U 09043A   26159.30365117 -.00000067  00000+0  00000+0 0  9999
2 35752  56.2048  27.8007 0053714  82.8286  29.7907  2.00554745123188

# G06 (GNSS)
1 39741U 14026A   26159.98431791 -.00000057  00000+0  00000+0 0  9993
2 39741  56.5024 331.8369 0038235 326.6943  33.0742  2.00561560 88375

# G07 (GNSS)
1 32711U 08012A   26160.15929060  .00000112  00000+0  00000+0 0  9994
2 32711  54.4963 150.2454 0211107 247.7440 110.0124  2.00572211133598

# G08 (GNSS)
1 40730U 15033A   26160.24350194 -.00000032  00000+0  00000+0 0  9993
2 40730  53.9888 267.4142 0115035  30.2017 330.4770  2.00556613 79830

# G09 (GNSS)
1 40105U 14045A   26160.07599105  .00000000  00000+0  00000+0 0  9993
2 40105  55.3481  88.7881 0032961 118.3556 241.9707  2.00557855 85918

# G10 (GNSS)
1 41019U 15062A   26160.29992778 -.00000064  00000+0  00000+0 0  9996
2 41019  56.9540  31.1152 0111654 231.1327 127.9172  2.00566961 77677

# G11 (GNSS)
1 48859U 21054A   26160.53379556 -.00000061  00000+0  00000+0 0  9990
2 48859  55.1784 332.7678 0025210 228.5565 133.5847  2.00569437 36607

# G12 (GNSS)
1 29601U 06052A   26159.94234806  .00000059  00000+0  00000+0 0  9992
2 29601  54.9359 214.3332 0085354  90.7851 270.2705  2.00557765143242

# G13 (GNSS)
1 24876U 97035A   26160.22432013  .00000021  00000+0  00000+0 0  9994
2 24876  55.9908  98.8867 0102064  56.7708 304.1859  2.00563822211795

# G14 (GNSS)
1 46826U 20078A   26160.36362656  .00000068  00000+0  00000+0 0  9997
2 46826  53.9808 211.0963 0073236 206.9943 206.0906  2.00564862 41356

# G15 (GNSS)
1 32260U 07047A   26160.24724118 -.00000019  00000+0  00000+0 0  9994
2 32260  54.0894  80.3929 0166407  87.2179 274.6850  2.00555611136652

# G16 (GNSS)
1 27663U 03005A   26160.21826243  .00000060  00000+0  00000+0 0  9999
2 27663  54.8834 215.2857 0147952  53.0758  12.8205  2.00560980171157

# G17 (GNSS)
1 28874U 05038A   26160.37957303 -.00000038  00000+0  00000+0 0  9997
2 28874  54.8846 273.4928 0127814 296.0939  67.9233  2.00566187151688

# G18 (GNSS)
1 44506U 19056A   26160.66603872 -.00000060  00000+0  00000+0 0  9998
2 44506  55.6415 331.4421 0061619 197.5538 159.0803  2.00569631 49917

# G19 (GNSS)
1 28190U 04009A   26160.39304169 -.00000040  00000+0  00000+0 0  9996
2 28190  54.8364 276.0023 0115818 172.7383 172.6693  2.00554955162780

# G20 (GNSS)
1 26360U 00025A   26140.24317648 -.00000089  00000+0  00000+0 0  9998
2 26360  55.1299  20.4300 0028094 247.8048 276.4516  2.00781761190716

# G21 (GNSS)
1 64202U 25116A   26155.36633038 -.00000073  00000+0  00000+0 0  9999
2 64202  55.2259  31.6468 0008452 337.8257 196.1658  2.00577081  7616

# G22 (GNSS)
1 26407U 00040A   26160.32511312  .00000060  00000+0  00000+0 0  9990
2 26407  54.8524 215.4748 0121134 302.4295  64.7131  2.00557610189799

# G23 (GNSS)
1 45854U 20041A   26160.51111454 -.00000065  00000+0  00000+0 0  9990
2 45854  56.6644  29.2419 0063565 204.6400 338.8574  2.00558822 43880

# G24 (GNSS)
1 38833U 12053A   26160.33917010  .00000103  00000+0  00000+0 0  9997
2 38833  53.5846 143.9208 0179848  65.6483 296.2179  2.00567341 99286

# G25 (GNSS)
1 36585U 10022A   26160.54415769  .00000075  00000+0  00000+0 0  9998
2 36585  54.2709 208.8701 0126320  66.1256 340.5382  2.00562026117447

# G26 (GNSS)
1 40534U 15013A   26160.58338993  .00000081  00000+0  00000+0 0  9996
2 40534  53.1683 204.4923 0109401  40.1375 320.7446  2.00551895 81676

# G27 (GNSS)
1 39166U 13023A   26160.20589165 -.00000034  00000+0  00000+0 0  9991
2 39166  54.5104 269.2989 0141592  51.0120 310.2585  2.00563489 95726

# G28 (GNSS)
1 55268U 23009A   26158.73659273  .00000105  00000+0  00000+0 0  9998
2 55268  55.1217 148.8905 0006217 315.6663 226.9396  2.00572207 25054

# G29 (GNSS)
1 32384U 07062A   26159.58599712 -.00000038  00000+0  00000+0 0  9994
2 32384  55.0388 274.4987 0035585 165.0710 204.7147  2.00559578135340

# G30 (GNSS)
1 39533U 14008A   26160.20747882  .00000109  00000+0  00000+0 0  9997
2 39533  53.6534 149.6452 0084239 231.1478 128.1054  2.00559266 89524

# G31 (GNSS)
1 29486U 06042A   26160.26736942  .00000113  00000+0  00000+0 0  9998
2 29486  54.7097 151.6534 0106436  54.2234 127.1175  2.00570326144231

# G32 (GNSS)
1 41328U 16007A   26158.89450904  .00000008  00000+0  00000+0 0  9999
2 41328  55.5185  89.8281 0096231 247.4008 111.5747  2.00552243 75653

# C06 (GNSS)
1 36828U 10036A   26160.93350646 -.00000029  00000+0  00000+0 0  9998
2 36828  54.3013 163.0252 0059281 225.1529 313.8504  1.00274536 58022

# C04 (GNSS)
1 37210U 10057A   26160.87257302 -.00000096  00000+0  00000+0 0  9999
2 37210   3.6277  68.9906 0004902 199.3786 104.0153  1.00271750 57218

# C07 (GNSS)
1 37256U 10068A   26160.74236155 -.00000225  00000+0  00000+0 0  9994
2 37256  47.5626 271.9271 0055147 212.2269 148.8480  1.00285942 56724

# C14 (GNSS)
1 38775U 12050B   26160.31332882 -.00000047  00000+0  00000+0 0  9993
2 38775  56.5375  63.1548 0013850 356.2475   3.7665  1.86230901 93165

# C01 (GNSS)
1 44231U 19027A   26160.94078649 -.00000229  00000+0  00000+0 0  9997
2 44231   1.6386  74.4929 0010423 284.0102  23.0210  1.00273789 26005

# C24 (GNSS)
1 43582U 18062B   26158.84230036  .00000103  00000+0  00000+0 0  9999
2 43582  54.0845 182.6111 0004788   9.6805 350.3844  1.86227922 53469

# C26 (GNSS)
1 43602U 18067A   26159.31766145  .00000110  00000+0  00000+0 0  9993
2 43602  54.1798 181.3412 0007741  30.1174 329.9822  1.86227940 52951

# C25 (GNSS)
1 43603U 18067B   26157.84181631  .00000093  00000+0  00000+0 0  9991
2 43603  54.1771 181.3547 0004475  14.0592 346.0057  1.86227396 52953

# C32 (GNSS)
1 43622U 18072A   26157.25976809 -.00000038  00000+0  00000+0 0  9992
2 43622  56.6156  63.0201 0007663 326.1226  33.8571  1.86231624 52450

# C33 (GNSS)
1 43623U 18072B   26157.12520620 -.00000038  00000+0  00000+0 0  9995
2 43623  56.6172  63.0188 0006283 355.7751   4.2482  1.86231665 52448

# C35 (GNSS)
1 43647U 18078A   26159.42848971 -.00000058  00000+0  00000+0 0  9996
2 43647  54.0984 300.2932 0007334  40.8019 319.2453  1.86232291 51999

# C34 (GNSS)
1 43648U 18078B   26152.57744501 -.00000074  00000+0  00000+0 0  9998
2 43648  54.1007 300.5335 0004536  56.3394 303.6792  1.86232507 51887

# C59 (GNSS)
1 43683U 18085A   26160.87257302 -.00000091  00000+0  00000+0 0  9994
2 43683   2.8487  97.5879 0008436 347.7580 287.0029  1.00271407 27981

# C36 (GNSS)
1 43706U 18093A   26158.64243694  .00000101  00000+0  00000+0 0  9991
2 43706  54.1686 182.6203 0010022 291.3761  66.7230  1.86228480 51355

# C37 (GNSS)
1 43707U 18093B   26160.11941244  .00000117  00000+0  00000+0 0  9990
2 43707  54.1692 182.5623 0007926 320.0800  39.9208  1.86226825 51382

# C38 (GNSS)
1 44204U 19023A   26157.95428288 -.00000215  00000+0  00000+0 0  9993
2 44204  58.6799  37.7569 0025434 225.6649  92.8731  1.00294886  7105

# C39 (GNSS)
1 44337U 19035A   26160.01737213 -.00000043  00000+0  00000+0 0  9994
2 44337  55.2449 158.9337 0039959 216.4337   8.1508  1.00269508 25582

# C46 (GNSS)
1 44542U 19061A   26160.18815803  .00000118  00000+0  00000+0 0  9993
2 44542  54.3960 182.9979 0008280 359.3056   0.7533  1.86229354 45649

# C45 (GNSS)
1 44543U 19061B   26160.40028029  .00000120  00000+0  00000+0 0  9998
2 44543  54.3945 182.9589 0005604 337.7254  76.1943  1.86227451 45656

# C40 (GNSS)
1 44709U 19073A   26136.81046384 -.00000217  00000+0  00000+0 0  9995
2 44709  54.8566 281.2355 0042953 189.4588 170.3676  1.00246251 24144

# C44 (GNSS)
1 44793U 19078A   26160.56479635 -.00000061  00000+0  00000+0 0  9998
2 44793  53.9433 300.0965 0006476  49.2798 310.7668  1.86227604 44501

# C43 (GNSS)
1 44794U 19078B   26159.63081975 -.00000059  00000+0  00000+0 0  9998
2 44794  53.9173 300.0906 0004394  47.4319 312.5973  1.86228036 44491
